{"type": "FeatureCollection", "features": [ {"type": "Feature", "properties": {"norad_id": 66052, "name": "HRC MONOBLOCK CAMERA", "group": "stations", "lat": 31.176603394329376, "lon": 149.39368181885348, "alt_km": 401.65925839712236, "timestamp": "2025-12-16T21:38:55.938523+00:00", "meta": {"OBJECT_NAME": "HRC MONOBLOCK CAMERA", "OBJECT_ID": "1998-067XR", "EPOCH": "2025-12-15T22:19:37.394688", "MEAN_MOTION": 15.54370373, "ECCENTRICITY": 0.00028854, "INCLINATION": 51.6289, "RA_OF_ASC_NODE": 125.5959, "ARG_OF_PERICENTER": 198.9504, "MEAN_ANOMALY": 161.1379, "EPHEMERIS_TYPE": 0, "CLASSIFICATION_TYPE": "U", "NORAD_CAT_ID": 66052, "ELEMENT_SET_NO": 999, "REV_AT_EPOCH": 933, "BSTAR": 0.00046656817, "MEAN_MOTION_DOT": 0.00030802, "MEAN_MOTION_DDOT": 0}, "tle": {"line1": "1 66052U 98067XR  25349.93029392  .00030802  00000+0  46657-3 0  9992", "line2": "2 66052  51.6289 125.5959 0002885 198.9504 161.1379 15.54370373  9338"}}, "geometry": {"type": "Point", "coordinates": [149.39368181885348, 31.176603394329376]}}, {"type": "Feature", "properties": {"norad_id": 66174, "name": "HTV-X1", "group": "stations", "lat": -32.88722988470489, "lon": -27.317240435754123, "alt_km": 419.90294636343333, "timestamp": "2025-12-16T21:38:55.938533+00:00", "meta": {"OBJECT_NAME": "HTV-X1", "OBJECT_ID": "2025-241A", "EPOCH": "2025-12-16T02:06:50.626944", "MEAN_MOTION": 15.49613604, "ECCENTRICITY": 0.00031739, "INCLINATION": 51.6306, "RA_OF_ASC_NODE": 125.8981, "ARG_OF_PERICENTER": 255.6781, "MEAN_ANOMALY": 104.3856, "EPHEMERIS_TYPE": 0, "CLASSIFICATION_TYPE": "U", "NORAD_CAT_ID": 66174, "ELEMENT_SET_NO": 999, "REV_AT_EPOCH": 51, "BSTAR": 0.00012170727, "MEAN_MOTION_DOT": 6.404e-05, "MEAN_MOTION_DDOT": 0}, "tle": {"line1": "1 66174U 25241A   25350.08808596  .00006404  00000+0  12171-3 0  9995", "line2": "2 66174  51.6306 125.8981 0003173 255.6781 104.3856 15.49613604   511"}}, "geometry": {"type": "Point", "coordinates": [-27.317240435754123, -32.88722988470489]}}, {"type": "Feature", "properties": {"norad_id": 66515, "name": "SZ-21 MODULE", "group": "stations", "lat": 41.31086174364867, "lon": 86.4546938688586, "alt_km": 377.1836033642894, "timestamp": "2025-12-16T21:38:55.938543+00:00", "meta": {"OBJECT_NAME": "SZ-21 MODULE", "OBJECT_ID": "2025-246C", "EPOCH": "2025-12-16T01:18:26.404128", "MEAN_MOTION": 15.62659653, "ECCENTRICITY": 0.00061121, "INCLINATION": 41.4775, "RA_OF_ASC_NODE": 355.8239, "ARG_OF_PERICENTER": 277.4076, "MEAN_ANOMALY": 82.6069, "EPHEMERIS_TYPE": 0, "CLASSIFICATION_TYPE": "U", "NORAD_CAT_ID": 66515, "ELEMENT_SET_NO": 999, "REV_AT_EPOCH": 496, "BSTAR": 0.00024372704, "MEAN_MOTION_DOT": 0.00022201, "MEAN_MOTION_DDOT": 0}, "tle": {"line1": "1 66515U 25246C   25350.05447227  .00022201  00000+0  24373-3 0  9996", "line2": "2 66515  41.4775 355.8239 0006112 277.4076  82.6069 15.62659653  4969"}}, "geometry": {"type": "Point", "coordinates": [86.4546938688586, 41.31086174364867]}}, {"type": "Feature", "properties": {"norad_id": 66645, "name": "SHENZHOU-22", "group": "stations", "lat": 27.304444263526836, "lon": 135.66122614824346, "alt_km": 383.2819732435346, "timestamp": "2025-12-16T21:38:55.938555+00:00", "meta": {"OBJECT_NAME": "SHENZHOU-22", "OBJECT_ID": "2025-272A", "EPOCH": "2025-12-16T07:14:05.691264", "MEAN_MOTION": 15.59326293, "ECCENTRICITY": 0.00078559, "INCLINATION": 41.4684, "RA_OF_ASC_NODE": 355.0821, "ARG_OF_PERICENTER": 60.8888, "MEAN_ANOMALY": 299.2736, "EPHEMERIS_TYPE": 0, "CLASSIFICATION_TYPE": "U", "NORAD_CAT_ID": 66645, "ELEMENT_SET_NO": 999, "REV_AT_EPOCH": 26357, "BSTAR": 0.00021422181, "MEAN_MOTION_DOT": 0.00017088, "MEAN_MOTION_DDOT": 0}, "tle": {"line1": "1 66645U 25272A   25350.30145476  .00017088  00000+0  21422-3 0  9997", "line2": "2 66645  41.4684 355.0821 0007855  60.8888 299.2736 15.59326293263579"}}, "geometry": {"type": "Point", "coordinates": [135.66122614824346, 27.304444263526836]}}, {"type": "Feature", "properties": {"norad_id": 66664, "name": "SOYUZ-MS 28", "group": "stations", "lat": -32.887231275511986, "lon": -27.317238618036768, "alt_km": 419.9029463998204, "timestamp": "2025-12-16T21:38:55.938565+00:00", "meta": {"OBJECT_NAME": "SOYUZ-MS 28", "OBJECT_ID": "2025-275A", "EPOCH": "2025-12-16T02:06:50.626944", "MEAN_MOTION": 15.49613604, "ECCENTRICITY": 0.00031739, "INCLINATION": 51.6306, "RA_OF_ASC_NODE": 125.8981, "ARG_OF_PERICENTER": 255.6781, "MEAN_ANOMALY": 104.3856, "EPHEMERIS_TYPE": 0, "CLASSIFICATION_TYPE": "U", "NORAD_CAT_ID": 66664, "ELEMENT_SET_NO": 999, "REV_AT_EPOCH": 128, "BSTAR": 0.00012170727, "MEAN_MOTION_DOT": 6.404e-05, "MEAN_MOTION_DDOT": 0}, "tle": {"line1": "1 66664U 25275A   25350.08808596  .00006404  00000+0  12171-3 0  9996", "line2": "2 66664  51.6306 125.8981 0003173 255.6781 104.3856 15.49613604  1280"}}, "geometry": {"type": "Point", "coordinates": [-27.317238618036768, -32.887231275511986]}}, {"type": "Feature", "properties": {"norad_id": 66906, "name": "1998-067XS", "group": "stations", "lat": -51.60983977406917, "lon": 31.426826120215512, "alt_km": 417.580822820978, "timestamp": "2025-12-16T21:38:55.938575+00:00", "meta": {"OBJECT_NAME": "1998-067XS", "OBJECT_ID": "1998-067XS", "EPOCH": "2025-12-15T16:39:04.886784", "MEAN_MOTION": 15.50732342, "ECCENTRICITY": 0.00032898, "INCLINATION": 51.6303, "RA_OF_ASC_NODE": 127.7667, "ARG_OF_PERICENTER": 216.5725, "MEAN_ANOMALY": 143.504, "EPHEMERIS_TYPE": 0, "CLASSIFICATION_TYPE": "U", "NORAD_CAT_ID": 66906, "ELEMENT_SET_NO": 999, "REV_AT_EPOCH": 207, "BSTAR": 0.00035286566, "MEAN_MOTION_DOT": 0.00020263, "MEAN_MOTION_DDOT": 0}, "tle": {"line1": "1 66906U 98067XS  25349.69380656  .00020263  00000+0  35287-3 0  9993", "line2": "2 66906  51.6303 127.7667 0003289 216.5725 143.5040 15.50732342  2071"}}, "geometry": {"type": "Point", "coordinates": [31.426826120215512, -51.60983977406917]}}, {"type": "Feature", "properties": {"norad_id": 66907, "name": "1998-067XT", "group": "stations", "lat": -42.444760476003424, "lon": 75.26841814396008, "alt_km": 413.6216681363803, "timestamp": "2025-12-16T21:38:55.938586+00:00", "meta": {"OBJECT_NAME": "1998-067XT", "OBJECT_ID": "1998-067XT", "EPOCH": "2025-12-15T19:37:52.461984", "MEAN_MOTION": 15.51845045, "ECCENTRICITY": 0.00041213, "INCLINATION": 51.6296, "RA_OF_ASC_NODE": 127.0953, "ARG_OF_PERICENTER": 244.2963, "MEAN_ANOMALY": 115.7601, "EPHEMERIS_TYPE": 0, "CLASSIFICATION_TYPE": "U", "NORAD_CAT_ID": 66907, "ELEMENT_SET_NO": 999, "REV_AT_EPOCH": 209, "BSTAR": 0.00082636885, "MEAN_MOTION_DOT": 0.0005023, "MEAN_MOTION_DDOT": 0}, "tle": {"line1": "1 66907U 98067XT  25349.81796831  .00050230  00000+0  82637-3 0  9992", "line2": "2 66907  51.6296 127.0953 0004121 244.2963 115.7601 15.51845045  2094"}}, "geometry": {"type": "Point", "coordinates": [75.26841814396008, -42.444760476003424]}}, {"type": "Feature", "properties": {"norad_id": 66908, "name": "1998-067XU", "group": "stations", "lat": -40.67587126631459, "lon": 78.78204035636521, "alt_km": 413.3930417033034, "timestamp": "2025-12-16T21:38:55.938596+00:00", "meta": {"OBJECT_NAME": "1998-067XU", "OBJECT_ID": "1998-067XU", "EPOCH": "2025-12-15T18:04:25.292064", "MEAN_MOTION": 15.51929885, "ECCENTRICITY": 0.00042378, "INCLINATION": 51.6291, "RA_OF_ASC_NODE": 127.4116, "ARG_OF_PERICENTER": 243.4196, "MEAN_ANOMALY": 116.636, "EPHEMERIS_TYPE": 0, "CLASSIFICATION_TYPE": "U", "NORAD_CAT_ID": 66908, "ELEMENT_SET_NO": 999, "REV_AT_EPOCH": 208, "BSTAR": 0.00081150303, "MEAN_MOTION_DOT": 0.00049466, "MEAN_MOTION_DDOT": 0}, "tle": {"line1": "1 66908U 98067XU  25349.75307051  .00049466  00000+0  81150-3 0  9996", "line2": "2 66908  51.6291 127.4116 0004237 243.4196 116.6360 15.51929885  2088"}}, "geometry": {"type": "Point", "coordinates": [78.78204035636521, -40.67587126631459]}}, {"type": "Feature", "properties": {"norad_id": 66909, "name": "SILVERSAT", "group": "stations", "lat": -38.438869958213765, "lon": 82.72474832380874, "alt_km": 413.0658304665794, "timestamp": "2025-12-16T21:38:55.938607+00:00", "meta": {"OBJECT_NAME": "SILVERSAT", "OBJECT_ID": "1998-067XV", "EPOCH": "2025-12-15T14:58:08.164704", "MEAN_MOTION": 15.52037636, "ECCENTRICITY": 0.00041166, "INCLINATION": 51.6296, "RA_OF_ASC_NODE": 128.048, "ARG_OF_PERICENTER": 244.867, "MEAN_ANOMALY": 115.1892, "EPHEMERIS_TYPE": 0, "CLASSIFICATION_TYPE": "U", "NORAD_CAT_ID": 66909, "ELEMENT_SET_NO": 999, "REV_AT_EPOCH": 206, "BSTAR": 0.00079995468, "MEAN_MOTION_DOT": 0.00048941, "MEAN_MOTION_DDOT": 0}, "tle": {"line1": "1 66909U 98067XV  25349.62370561  .00048941  00000+0  79995-3 0  9990", "line2": "2 66909  51.6296 128.0480 0004116 244.8670 115.1892 15.52037636  2060"}}, "geometry": {"type": "Point", "coordinates": [82.72474832380874, -38.438869958213765]}}, {"type": "Feature", "properties": {"norad_id": 66910, "name": "1998-067XW", "group": "stations", "lat": -32.156939309142146, "lon": 91.7949525321587, "alt_km": 413.971551233175, "timestamp": "2025-12-16T21:38:55.938617+00:00", "meta": {"OBJECT_NAME": "1998-067XW", "OBJECT_ID": "1998-067XW", "EPOCH": "2025-12-15T16:28:26.170464", "MEAN_MOTION": 15.52120253, "ECCENTRICITY": 0.00047674, "INCLINATION": 51.6293, "RA_OF_ASC_NODE": 127.717, "ARG_OF_PERICENTER": 223.5527, "MEAN_ANOMALY": 136.5086, "EPHEMERIS_TYPE": 0, "CLASSIFICATION_TYPE": "U", "NORAD_CAT_ID": 66910, "ELEMENT_SET_NO": 999, "REV_AT_EPOCH": 207, "BSTAR": 0.00072313444, "MEAN_MOTION_DOT": 0.00044307, "MEAN_MOTION_DDOT": 0}, "tle": {"line1": "1 66910U 98067XW  25349.68641401  .00044307  00000+0  72313-3 0  9991", "line2": "2 66910  51.6293 127.7170 0004767 223.5527 136.5086 15.52120253  2079"}}, "geometry": {"type": "Point", "coordinates": [91.7949525321587, -32.156939309142146]}}]}